{
  "type": "FeatureCollection",
  "features": [
    {
      "type": "Feature",
      "properties": {
        "norad_id": 36585,
        "name": "GPS BIIF-1  (PRN 25)",
        "group": "gnss",
        "lat": 32.78256031914058,
        "lon": 8.416968487694074,
        "alt_km": 20077.69756228866,
        "timestamp": "2025-12-15T04:01:20.694804+00:00",
        "meta_object_name": "GPS BIIF-1  (PRN 25)",
        "meta_object_id": "2010-022A",
        "meta_epoch": "2025-12-14T05:35:49.434720",
        "meta_mean_motion": 2.00553343,
        "meta_eccentricity": 0.01261835,
        "meta_inclination": 54.2999,
        "meta_ra_of_asc_node": 216.0137,
        "meta_arg_of_pericenter": 65.0918,
        "meta_mean_anomaly": 117.1041,
        "meta_ephemeris_type": 0,
        "meta_classification_type": "U",
        "meta_norad_cat_id": 36585,
        "meta_element_set_no": 999,
        "meta_rev_at_epoch": 11388,
        "meta_bstar": 0,
        "meta_mean_motion_dot": 4.9e-07,
        "meta_mean_motion_ddot": 0,
        "tle_line1": "1 36585U 10022A   25348.23321105  .00000049  00000+0  00000+0 0  9992",
        "tle_line2": "2 36585  54.2999 216.0137 0126183  65.0918 117.1041  2.00553343113888"
      },
      "geometry": {
        "type": "Point",
        "coordinates": [
          8.416968487694074,
          32.78256031914058
        ]
      }
    },
    {
      "type": "Feature",
      "properties": {
        "norad_id": 36828,
        "name": "BEIDOU-2 IGSO-1 (C06)",
        "group": "gnss",
        "lat": 54.13839941821243,
        "lon": -110.10882965658286,
        "alt_km": 35913.67565780023,
        "timestamp": "2025-12-15T04:01:20.694817+00:00",
        "meta_object_name": "BEIDOU-2 IGSO-1 (C06)",
        "meta_object_id": "2010-036A",
        "meta_epoch": "2025-12-13T21:54:21.538656",
        "meta_mean_motion": 1.00275899,
        "meta_eccentricity": 0.00512465,
        "meta_inclination": 54.2867,
        "meta_ra_of_asc_node": 164.6367,
        "meta_arg_of_pericenter": 215.8478,
        "meta_mean_anomaly": 138.8413,
        "meta_ephemeris_type": 0,
        "meta_classification_type": "U",
        "meta_norad_cat_id": 36828,
        "meta_element_set_no": 999,
        "meta_rev_at_epoch": 5623,
        "meta_bstar": 0,
        "meta_mean_motion_dot": -2.9e-07,
        "meta_mean_motion_ddot": 0,
        "tle_line1": "1 36828U 10036A   25347.91274929 -.00000029  00000+0  00000+0 0  9991",
        "tle_line2": "2 36828  54.2867 164.6367 0051246 215.8478 138.8413  1.00275899 56232"
      },
      "geometry": {
        "type": "Point",
        "coordinates": [
          -110.10882965658286,
          54.13839941821243
        ]
      }
    },
    {
      "type": "Feature",
      "properties": {
        "norad_id": 37210,
        "name": "BEIDOU-2 G4 (C04)",
        "group": "gnss",
        "lat": -2.6145390708050154,
        "lon": -55.476561429382144,
        "alt_km": 35753.25006282783,
        "timestamp": "2025-12-15T04:01:20.694830+00:00",
        "meta_object_name": "BEIDOU-2 G4 (C04)",
        "meta_object_id": "2010-057A",
        "meta_epoch": "2025-12-14T07:19:54.939936",
        "meta_mean_motion": 1.00271726,
        "meta_eccentricity": 0.00107273,
        "meta_inclination": 3.1887,
        "meta_ra_of_asc_node": 69.9344,
        "meta_arg_of_pericenter": 191.5622,
        "meta_mean_anomaly": 91.7831,
        "meta_ephemeris_type": 0,
        "meta_classification_type": "U",
        "meta_norad_cat_id": 37210,
        "meta_element_set_no": 999,
        "meta_rev_at_epoch": 5543,
        "meta_bstar": 0,
        "meta_mean_motion_dot": -9.5e-07,
        "meta_mean_motion_ddot": 0,
        "tle_line1": "1 37210U 10057A   25348.30549699 -.00000095  00000+0  00000+0 0  9996",
        "tle_line2": "2 37210   3.1887  69.9344 0010727 191.5622  91.7831  1.00271726 55432"
      },
      "geometry": {
        "type": "Point",
        "coordinates": [
          -55.476561429382144,
          -2.6145390708050154
        ]
      }
    },
    {
      "type": "Feature",
      "properties": {
        "norad_id": 37256,
        "name": "BEIDOU-2 IGSO-2 (C07)",
        "group": "gnss",
        "lat": -15.807225573494968,
        "lon": -100.71717197258062,
        "alt_km": 35895.43747991675,
        "timestamp": "2025-12-15T04:01:20.694843+00:00",
        "meta_object_name": "BEIDOU-2 IGSO-2 (C07)",
        "meta_object_id": "2010-068A",
        "meta_epoch": "2025-12-03T17:22:36.027840",
        "meta_mean_motion": 1.0028872,
        "meta_eccentricity": 0.00492449,
        "meta_inclination": 47.9042,
        "meta_ra_of_asc_node": 274.2614,
        "meta_arg_of_pericenter": 216.1411,
        "meta_mean_anomaly": 310.24,
        "meta_ephemeris_type": 0,
        "meta_classification_type": "U",
        "meta_norad_cat_id": 37256,
        "meta_element_set_no": 999,
        "meta_rev_at_epoch": 5483,
        "meta_bstar": 0,
        "meta_mean_motion_dot": -2.25e-06,
        "meta_mean_motion_ddot": 0,
        "tle_line1": "1 37256U 10068A   25337.72402810 -.00000225  00000+0  00000+0 0  9990",
        "tle_line2": "2 37256  47.9042 274.2614 0049244 216.1411 310.2400  1.00288720 54834"
      },
      "geometry": {
        "type": "Point",
        "coordinates": [
          -100.71717197258062,
          -15.807225573494968
        ]
      }
    },
    {
      "type": "Feature",
      "properties": {
        "norad_id": 37384,
        "name": "BEIDOU-2 IGSO-3 (C08)",
        "group": "gnss",
        "lat": -26.35526933466613,
        "lon": -122.91097695712843,
        "alt_km": 35652.18035346095,
        "timestamp": "2025-12-15T04:01:20.694857+00:00",
        "meta_object_name": "BEIDOU-2 IGSO-3 (C08)",
        "meta_object_id": "2011-013A",
        "meta_epoch": "2025-12-13T13:58:02.786016",
        "meta_mean_motion": 1.00270696,
        "meta_eccentricity": 0.00354199,
        "meta_inclination": 62.1449,
        "meta_ra_of_asc_node": 41.9072,
        "meta_arg_of_pericenter": 187.5637,
        "meta_mean_anomaly": 170.0888,
        "meta_ephemeris_type": 0,
        "meta_classification_type": "U",
        "meta_norad_cat_id": 37384,
        "meta_element_set_no": 999,
        "meta_rev_at_epoch": 5379,
        "meta_bstar": 0,
        "meta_mean_motion_dot": -1.97e-06,
        "meta_mean_motion_ddot": 0,
        "tle_line1": "1 37384U 11013A   25347.58197669 -.00000197  00000+0  00000+0 0  9999",
        "tle_line2": "2 37384  62.1449  41.9072 0035419 187.5637 170.0888  1.00270696 53792"
      },
      "geometry": {
        "type": "Point",
        "coordinates": [
          -122.91097695712843,
          -26.35526933466613
        ]
      }
    },
    {
      "type": "Feature",
      "properties": {
        "norad_id": 37605,
        "name": "GSAT-8 (GAGAN/PRN 127)",
        "group": "gnss",
        "lat": 1.4829454486029687,
        "lon": -160.59677330736076,
        "alt_km": 35772.07468162342,
        "timestamp": "2025-12-15T04:01:20.694870+00:00",
        "meta_object_name": "GSAT-8 (GAGAN/PRN 127)",
        "meta_object_id": "2011-022A",
        "meta_epoch": "2025-12-14T05:07:15.147264",
        "meta_mean_motion": 1.00272393,
        "meta_eccentricity": 0.00086894,
        "meta_inclination": 1.6536,
        "meta_ra_of_asc_node": 84.1806,
        "meta_arg_of_pericenter": 183.7195,
        "meta_mean_anomaly": 307.1281,
        "meta_ephemeris_type": 0,
        "meta_classification_type": "U",
        "meta_norad_cat_id": 37605,
        "meta_element_set_no": 999,
        "meta_rev_at_epoch": 5136,
        "meta_bstar": 0,
        "meta_mean_motion_dot": 1.02e-06,
        "meta_mean_motion_ddot": 0,
        "tle_line1": "1 37605U 11022A   25348.21336976  .00000102  00000+0  00000+0 0  9997",
        "tle_line2": "2 37605   1.6536  84.1806 0008689 183.7195 307.1281  1.00272393 51360"
      },
      "geometry": {
        "type": "Point",
        "coordinates": [
          -160.59677330736076,
          1.4829454486029687
        ]
      }
    },
    {
      "type": "Feature",
      "properties": {
        "norad_id": 37763,
        "name": "BEIDOU-2 IGSO-4 (C09)",
        "group": "gnss",
        "lat": 50.34359945933453,
        "lon": -133.40727037017987,
        "alt_km": 36364.99574540528,
        "timestamp": "2025-12-15T04:01:20.694883+00:00",
        "meta_object_name": "BEIDOU-2 IGSO-4 (C09)",
        "meta_object_id": "2011-038A",
        "meta_epoch": "2025-12-10T12:04:03.489024",
        "meta_mean_motion": 1.00284678,
        "meta_eccentricity": 0.01490344,
        "meta_inclination": 54.5829,
        "meta_ra_of_asc_node": 167.3658,
        "meta_arg_of_pericenter": 230.2355,
        "meta_mean_anomaly": 317.2212,
        "meta_ephemeris_type": 0,
        "meta_classification_type": "U",
        "meta_norad_cat_id": 37763,
        "meta_element_set_no": 999,
        "meta_rev_at_epoch": 5275,
        "meta_bstar": 0,
        "meta_mean_motion_dot": 3.6e-07,
        "meta_mean_motion_ddot": 0,
        "tle_line1": "1 37763U 11038A   25344.50281816  .00000036  00000+0  00000+0 0  9995",
        "tle_line2": "2 37763  54.5829 167.3658 0149034 230.2355 317.2212  1.00284678 52751"
      },
      "geometry": {
        "type": "Point",
        "coordinates": [
          -133.40727037017987,
          50.34359945933453
        ]
      }
    }
  ]
}